ONEWEB-0238             
1 48784U 21045T   25287.11626345  .00000149  00000+0  36286-3 0  9996
2 48784  87.8970 308.2805 0002212  90.7223 269.4161 13.15546981212027
ONEWEB-0240             
1 48785U 21045U   25287.21356081  .00000128  00000+0  30591-3 0  9995
2 48785  87.8982 308.2480 0002079 102.9996 257.1366 13.15546273212063
ONEWEB-0246             
1 48786U 21045V   25287.05591072  .00000161  00000+0  39356-3 0  9994
2 48786  87.8983 308.2927 0001686  96.6800 263.4522 13.15547064211913
ONEWEB-0210             
1 48787U 21045W   25287.33478839 -.00000072  00000+0 -22583-3 0  9998
2 48787  87.8979 308.2362 0001416 113.3091 246.8189 13.15547845211991
ONEWEB-0214             
1 48788U 21045X   25287.11532344  .00000085  00000+0  19176-3 0  9993
2 48788  87.8977 308.2670 0001416 100.3550 259.7740 13.15546364211933
ONEWEB-0221             
1 48789U 21045Y   25287.12246894  .00000175  00000+0  42993-3 0  9990
2 48789  87.8968 308.2888 0001816 102.2874 257.8459 13.15547673212020
ONEWEB-0213             
1 48790U 21045Z   25287.11136837  .00000007  00000+0 -16325-4 0  9992
2 48790  87.8970 308.3001 0001744 102.4925 257.6401 13.15546875212086
ONEWEB-0212             
1 48791U 21045AA  25287.24049039 -.00000088  00000+0 -26669-3 0  9995
2 48791  87.8984 308.2589 0001917  93.9519 266.1830 13.15546710212097
ONEWEB-0227             
1 48792U 21045AB  25287.23972029 -.00000027  00000+0 -10486-3 0  9992
2 48792  87.8973 308.2755 0001852  98.7773 261.3567 13.15548476212044
ONEWEB-0226             
1 48793U 21045AC  25287.30943742 -.00000047  00000+0 -15834-3 0  9995
2 48793  87.8976 308.2694 0001607 103.5833 256.5477 13.15547813212028
ONEWEB-0224             
1 48794U 21045AD  25287.12088058  .00000078  00000+0  17282-3 0  9997
2 48794  87.8971 308.3418 0002725 106.1063 254.0368 13.15548702211923
ONEWEB-0233             
1 48795U 21045AE  25287.12549158  .00000127  00000+0  30305-3 0  9997
2 48795  87.8974 308.3522 0001947 104.4516 255.6831 13.15546987211949
ONEWEB-0190             
1 48796U 21045AF  25287.11295469  .00000039  00000+0  68834-4 0  9991
2 48796  87.8969 308.3171 0001793 120.0681 240.0627 13.15547942212012
ONEWEB-0236             
1 48797U 21045AG  25287.05432586  .00000168  00000+0  41328-3 0  9999
2 48797  87.8974 308.3399 0001956  91.3262 268.8092 13.15547486211899
ONEWEB-0248             
1 48798U 21045AH  25287.21911961  .00000064  00000+0  13533-3 0  9999
2 48798  87.8985 308.2646 0002192 109.9601 250.1765 13.15546983212075
ONEWEB-0225             
1 48799U 21045AJ  25287.31735725 -.00000065  00000+0 -20734-3 0  9997
2 48799  87.8976 308.2739 0001803 114.4244 245.7074 13.15547472212090
