[{"OBJECT_NAME":"ONEWEB-0238","OBJECT_ID":"2021-045T","EPOCH":"2025-10-14T02:47:25.162080","MEAN_MOTION":13.15546981,"ECCENTRICITY":0.00022125,"INCLINATION":87.897,"RA_OF_ASC_NODE":308.2805,"ARG_OF_PERICENTER":90.7223,"MEAN_ANOMALY":269.4161,"EPHEMERIS_TYPE":0,"CLASSIFICATION_TYPE":"U","NORAD_CAT_ID":48784,"ELEMENT_SET_NO":999,"REV_AT_EPOCH":21202,"BSTAR":0.00036286371,"MEAN_MOTION_DOT":1.49e-6,"MEAN_MOTION_DDOT":0},{"OBJECT_NAME":"ONEWEB-0240","OBJECT_ID":"2021-045U","EPOCH":"2025-10-14T05:07:31.653984","MEAN_MOTION":13.15546273,"ECCENTRICITY":0.00020795,"INCLINATION":87.8982,"RA_OF_ASC_NODE":308.248,"ARG_OF_PERICENTER":102.9996,"MEAN_ANOMALY":257.1366,"EPHEMERIS_TYPE":0,"CLASSIFICATION_TYPE":"U","NORAD_CAT_ID":48785,"ELEMENT_SET_NO":999,"REV_AT_EPOCH":21206,"BSTAR":0.00030590742,"MEAN_MOTION_DOT":1.28e-6,"MEAN_MOTION_DDOT":0},{"OBJECT_NAME":"ONEWEB-0246","OBJECT_ID":"2021-045V","EPOCH":"2025-10-14T01:20:30.686208","MEAN_MOTION":13.15547064,"ECCENTRICITY":0.00016866,"INCLINATION":87.8983,"RA_OF_ASC_NODE":308.2927,"ARG_OF_PERICENTER":96.68,"MEAN_ANOMALY":263.4522,"EPHEMERIS_TYPE":0,"CLASSIFICATION_TYPE":"U","NORAD_CAT_ID":48786,"ELEMENT_SET_NO":999,"REV_AT_EPOCH":21191,"BSTAR":0.00039355679,"MEAN_MOTION_DOT":1.61e-6,"MEAN_MOTION_DDOT":0},{"OBJECT_NAME":"ONEWEB-0210","OBJECT_ID":"2021-045W","EPOCH":"2025-10-14T08:02:05.716896","MEAN_MOTION":13.15547845,"ECCENTRICITY":0.00014165,"INCLINATION":87.8979,"RA_OF_ASC_NODE":308.2362,"ARG_OF_PERICENTER":113.3091,"MEAN_ANOMALY":246.8189,"EPHEMERIS_TYPE":0,"CLASSIFICATION_TYPE":"U","NORAD_CAT_ID":48787,"ELEMENT_SET_NO":999,"REV_AT_EPOCH":21199,"BSTAR":-0.00022583237,"MEAN_MOTION_DOT":-7.2e-7,"MEAN_MOTION_DDOT":0},{"OBJECT_NAME":"ONEWEB-0214","OBJECT_ID":"2021-045X","EPOCH":"2025-10-14T02:46:03.945216","MEAN_MOTION":13.15546364,"ECCENTRICITY":0.00014162,"INCLINATION":87.8977,"RA_OF_ASC_NODE":308.267,"ARG_OF_PERICENTER":100.355,"MEAN_ANOMALY":259.774,"EPHEMERIS_TYPE":0,"CLASSIFICATION_TYPE":"U","NORAD_CAT_ID":48788,"ELEMENT_SET_NO":999,"REV_AT_EPOCH":21193,"BSTAR":0.00019176153,"MEAN_MOTION_DOT":8.5e-7,"MEAN_MOTION_DDOT":0},{"OBJECT_NAME":"ONEWEB-0221","OBJECT_ID":"2021-045Y","EPOCH":"2025-10-14T02:56:21.316416","MEAN_MOTION":13.15547673,"ECCENTRICITY":0.00018166,"INCLINATION":87.8968,"RA_OF_ASC_NODE":308.2888,"ARG_OF_PERICENTER":102.2874,"MEAN_ANOMALY":257.8459,"EPHEMERIS_TYPE":0,"CLASSIFICATION_TYPE":"U","NORAD_CAT_ID":48789,"ELEMENT_SET_NO":999,"REV_AT_EPOCH":21202,"BSTAR":0.00042993225,"MEAN_MOTION_DOT":1.75e-6,"MEAN_MOTION_DDOT":0},{"OBJECT_NAME":"ONEWEB-0213","OBJECT_ID":"2021-045Z","EPOCH":"2025-10-14T02:40:22.227168","MEAN_MOTION":13.15546875,"ECCENTRICITY":0.00017442,"INCLINATION":87.897,"RA_OF_ASC_NODE":308.3001,"ARG_OF_PERICENTER":102.4925,"MEAN_ANOMALY":257.6401,"EPHEMERIS_TYPE":0,"CLASSIFICATION_TYPE":"U","NORAD_CAT_ID":48790,"ELEMENT_SET_NO":999,"REV_AT_EPOCH":21208,"BSTAR":-1.6324763e-5,"MEAN_MOTION_DOT":7.0e-8,"MEAN_MOTION_DDOT":0},{"OBJECT_NAME":"ONEWEB-0212","OBJECT_ID":"2021-045AA","EPOCH":"2025-10-14T05:46:18.369696","MEAN_MOTION":13.1554671,"ECCENTRICITY":0.00019171,"INCLINATION":87.8984,"RA_OF_ASC_NODE":308.2589,"ARG_OF_PERICENTER":93.9519,"MEAN_ANOMALY":266.183,"EPHEMERIS_TYPE":0,"CLASSIFICATION_TYPE":"U","NORAD_CAT_ID":48791,"ELEMENT_SET_NO":999,"REV_AT_EPOCH":21209,"BSTAR":-0.0002666857,"MEAN_MOTION_DOT":-8.8e-7,"MEAN_MOTION_DDOT":0},{"OBJECT_NAME":"ONEWEB-0227","OBJECT_ID":"2021-045AB","EPOCH":"2025-10-14T05:45:11.833056","MEAN_MOTION":13.15548476,"ECCENTRICITY":0.0001852,"INCLINATION":87.8973,"RA_OF_ASC_NODE":308.2755,"ARG_OF_PERICENTER":98.7773,"MEAN_ANOMALY":261.3567,"EPHEMERIS_TYPE":0,"CLASSIFICATION_TYPE":"U","NORAD_CAT_ID":48792,"ELEMENT_SET_NO":999,"REV_AT_EPOCH":21204,"BSTAR":-0.00010486146,"MEAN_MOTION_DOT":-2.7e-7,"MEAN_MOTION_DDOT":0},{"OBJECT_NAME":"ONEWEB-0226","OBJECT_ID":"2021-045AC","EPOCH":"2025-10-14T07:25:35.393088","MEAN_MOTION":13.15547813,"ECCENTRICITY":0.00016074,"INCLINATION":87.8976,"RA_OF_ASC_NODE":308.2694,"ARG_OF_PERICENTER":103.5833,"MEAN_ANOMALY":256.5477,"EPHEMERIS_TYPE":0,"CLASSIFICATION_TYPE":"U","NORAD_CAT_ID":48793,"ELEMENT_SET_NO":999,"REV_AT_EPOCH":21202,"BSTAR":-0.00015834287,"MEAN_MOTION_DOT":-4.7e-7,"MEAN_MOTION_DDOT":0},{"OBJECT_NAME":"ONEWEB-0224","OBJECT_ID":"2021-045AD","EPOCH":"2025-10-14T02:54:04.082112","MEAN_MOTION":13.15548702,"ECCENTRICITY":0.00027251,"INCLINATION":87.8971,"RA_OF_ASC_NODE":308.3418,"ARG_OF_PERICENTER":106.1063,"MEAN_ANOMALY":254.0368,"EPHEMERIS_TYPE":0,"CLASSIFICATION_TYPE":"U","NORAD_CAT_ID":48794,"ELEMENT_SET_NO":999,"REV_AT_EPOCH":21192,"BSTAR":0.00017282308,"MEAN_MOTION_DOT":7.8e-7,"MEAN_MOTION_DDOT":0},{"OBJECT_NAME":"ONEWEB-0233","OBJECT_ID":"2021-045AE","EPOCH":"2025-10-14T03:00:42.472512","MEAN_MOTION":13.15546987,"ECCENTRICITY":0.00019474,"INCLINATION":87.8974,"RA_OF_ASC_NODE":308.3522,"ARG_OF_PERICENTER":104.4516,"MEAN_ANOMALY":255.6831,"EPHEMERIS_TYPE":0,"CLASSIFICATION_TYPE":"U","NORAD_CAT_ID":48795,"ELEMENT_SET_NO":999,"REV_AT_EPOCH":21194,"BSTAR":0.00030305483,"MEAN_MOTION_DOT":1.27e-6,"MEAN_MOTION_DDOT":0},{"OBJECT_NAME":"ONEWEB-0190","OBJECT_ID":"2021-045AF","EPOCH":"2025-10-14T02:42:39.285216","MEAN_MOTION":13.15547942,"ECCENTRICITY":0.00017931,"INCLINATION":87.8969,"RA_OF_ASC_NODE":308.3171,"ARG_OF_PERICENTER":120.0681,"MEAN_ANOMALY":240.0627,"EPHEMERIS_TYPE":0,"CLASSIFICATION_TYPE":"U","NORAD_CAT_ID":48796,"ELEMENT_SET_NO":999,"REV_AT_EPOCH":21201,"BSTAR":6.8834344e-5,"MEAN_MOTION_DOT":3.9e-7,"MEAN_MOTION_DDOT":0},{"OBJECT_NAME":"ONEWEB-0236","OBJECT_ID":"2021-045AG","EPOCH":"2025-10-14T01:18:13.754304","MEAN_MOTION":13.15547486,"ECCENTRICITY":0.00019568,"INCLINATION":87.8974,"RA_OF_ASC_NODE":308.3399,"ARG_OF_PERICENTER":91.3262,"MEAN_ANOMALY":268.8092,"EPHEMERIS_TYPE":0,"CLASSIFICATION_TYPE":"U","NORAD_CAT_ID":48797,"ELEMENT_SET_NO":999,"REV_AT_EPOCH":21189,"BSTAR":0.00041328423,"MEAN_MOTION_DOT":1.68e-6,"MEAN_MOTION_DDOT":0},{"OBJECT_NAME":"ONEWEB-0248","OBJECT_ID":"2021-045AH","EPOCH":"2025-10-14T05:15:31.934304","MEAN_MOTION":13.15546983,"ECCENTRICITY":0.0002192,"INCLINATION":87.8985,"RA_OF_ASC_NODE":308.2646,"ARG_OF_PERICENTER":109.9601,"MEAN_ANOMALY":250.1765,"EPHEMERIS_TYPE":0,"CLASSIFICATION_TYPE":"U","NORAD_CAT_ID":48798,"ELEMENT_SET_NO":999,"REV_AT_EPOCH":21207,"BSTAR":0.00013532783,"MEAN_MOTION_DOT":6.4e-7,"MEAN_MOTION_DDOT":0},{"OBJECT_NAME":"ONEWEB-0225","OBJECT_ID":"2021-045AJ","EPOCH":"2025-10-14T07:36:59.666400","MEAN_MOTION":13.15547472,"ECCENTRICITY":0.00018031,"INCLINATION":87.8976,"RA_OF_ASC_NODE":308.2739,"ARG_OF_PERICENTER":114.4244,"MEAN_ANOMALY":245.7074,"EPHEMERIS_TYPE":0,"CLASSIFICATION_TYPE":"U","NORAD_CAT_ID":48799,"ELEMENT_SET_NO":999,"REV_AT_EPOCH":21209,"BSTAR":-0.00020734123,"MEAN_MOTION_DOT":-6.5e-7,"MEAN_MOTION_DDOT":0}]
